ONEWEB-0233             
1 48795U 21045AE  25072.79592484 -.00000884  00000+0 -23825-2 0  9992
2 48795  87.9143 350.9566 0002120  72.3740 287.7622 13.15549693183764
ONEWEB-0190             
1 48796U 21045AF  25072.78340136 -.00000031  00000+0 -11547-3 0  9990
2 48796  87.9144 350.9220 0002673  72.9032 287.2391 13.15547264183834
ONEWEB-0236             
1 48797U 21045AG  25072.80082803 -.00000085  00000+0 -25980-3 0  9993
2 48797  87.9147 350.9228 0001922  74.6804 285.4539 13.15547267183723
ONEWEB-0248             
1 48798U 21045AH  25072.81350657  .00000038  00000+0  67933-4 0  9991
2 48798  87.9136 350.8873 0002328  63.5423 296.5946 13.15549657183889
ONEWEB-0225             
1 48799U 21045AJ  25072.75962410  .00000185  00000+0  45645-3 0  9999
2 48799  87.9143 350.9229 0002136  73.8882 286.2483 13.15547231183882
ONEWEB-0215             
1 48800U 21045AK  25072.80557774 -.00000084  00000+0 -25844-3 0  9990
2 48800  87.9134 350.8724 0002470  67.1514 292.9877 13.15550104183764
ONEWEB-0216             
1 48801U 21045AL  25072.81507776  .00000009  00000+0 -92591-5 0  9990
2 48801  87.9135 350.9149 0001968  84.5974 275.5381 13.15550505183775
ONEWEB-0239             
1 48802U 21045AM  25072.81982423  .00000122  00000+0  28889-3 0  9999
2 48802  87.9144 350.9134 0002443  61.1668 298.9707 13.15552018183817
